[{"OBJECT_NAME":"STARLINK-5695","OBJECT_ID":"2023-015AN","EPOCH":"2026-03-09T22:00:01.999584","MEAN_MOTION":15.12778701,"ECCENTRICITY":0.0001487,"INCLINATION":42.9994,"RA_OF_ASC_NODE":337.4442,"ARG_OF_PERICENTER":225.7062,"MEAN_ANOMALY":61.9629,"EPHEMERIS_TYPE":0,"CLASSIFICATION_TYPE":"U","NORAD_CAT_ID":55485,"ELEMENT_SET_NO":999,"REV_AT_EPOCH":577,"BSTAR":0.00099175492,"MEAN_MOTION_DOT":0.00017529,"MEAN_MOTION_DDOT":0},{"OBJECT_NAME":"SL-3 DEB","OBJECT_ID":"1988-032D","EPOCH":"2026-03-09T21:36:49.536576","MEAN_MOTION":15.21301321,"ECCENTRICITY":0.00302448,"INCLINATION":97.5102,"RA_OF_ASC_NODE":52.3226,"ARG_OF_PERICENTER":221.5268,"MEAN_ANOMALY":138.367,"EPHEMERIS_TYPE":0,"CLASSIFICATION_TYPE":"U","NORAD_CAT_ID":25655,"ELEMENT_SET_NO":999,"REV_AT_EPOCH":5124,"BSTAR":0.00031081119,"MEAN_MOTION_DOT":6.967e-5,"MEAN_MOTION_DDOT":0}]
